{
  "type": "FeatureCollection",
  "crs": {
    "type": "name",
    "properties": {
      "name": "EPSG:28355"
    }
  },
  "features": [
    {
      "type": "Feature",
      "properties": {
        "label": "EOG",
        "provisional": true,
        "snap_distance_m": 15.811388300841898
      },
      "geometry": {
        "type": "LineString",
        "coordinates": [
          [
            675992.5,
            6113812.5
          ],
          [
            675987.5,
            6113817.5
          ],
          [
            675982.5,
            6113822.5
          ],
          [
            675977.5,
            6113822.5
          ],
          [
            675972.5,
            6113827.5
          ],
          [
            675967.5,
            6113832.5
          ],
          [
            675967.5,
            6113837.5
          ],
          [
            675962.5,
            6113842.5
          ],
          [
            675962.5,
            6113847.5
          ],
          [
            675962.5,
            6113852.5
          ],
          [
            675962.5,
            6113857.5
          ],
          [
            675957.5,
            6113862.5
          ],
          [
            675957.5,
            6113867.5
          ],
          [
            675957.5,
            6113872.5
          ],
          [
            675957.5,
            6113877.5
          ],
          [
            675957.5,
            6113882.5
          ],
          [
            675957.5,
            6113887.5
          ],
          [
            675957.5,
            6113892.5
          ],
          [
            675957.5,
            6113897.5
          ],
          [
            675957.5,
            6113902.5
          ],
          [
            675957.5,
            6113907.5
          ],
          [
            675957.5,
            6113912.5
          ],
          [
            675957.5,
            6113917.5
          ],
          [
            675957.5,
            6113922.5
          ],
          [
            675957.5,
            6113927.5
          ],
          [
            675962.5,
            6113932.5
          ],
          [
            675962.5,
            6113937.5
          ],
          [
            675962.5,
            6113942.5
          ],
          [
            675962.5,
            6113947.5
          ],
          [
            675962.5,
            6113952.5
          ],
          [
            675962.5,
            6113957.5
          ],
          [
            675962.5,
            6113962.5
          ],
          [
            675957.5,
            6113967.5
          ],
          [
            675957.5,
            6113972.5
          ],
          [
            675957.5,
            6113977.5
          ],
          [
            675952.5,
            6113982.5
          ],
          [
            675952.5,
            6113987.5
          ],
          [
            675952.5,
            6113992.5
          ],
          [
            675952.5,
            6113997.5
          ],
          [
            675952.5,
            6114002.5
          ],
          [
            675947.5,
            6114007.5
          ],
          [
            675947.5,
            6114012.5
          ],
          [
            675942.5,
            6114017.5
          ],
          [
            675942.5,
            6114022.5
          ],
          [
            675937.5,
            6114027.5
          ],
          [
            675937.5,
            6114032.5
          ],
          [
            675937.5,
            6114037.5
          ],
          [
            675937.5,
            6114042.5
          ],
          [
            675937.5,
            6114047.5
          ],
          [
            675937.5,
            6114052.5
          ],
          [
            675937.5,
            6114057.5
          ],
          [
            675937.5,
            6114062.5
          ],
          [
            675937.5,
            6114067.5
          ],
          [
            675937.5,
            6114072.5
          ],
          [
            675937.5,
            6114077.5
          ],
          [
            675937.5,
            6114082.5
          ],
          [
            675937.5,
            6114087.5
          ],
          [
            675937.5,
            6114092.5
          ],
          [
            675937.5,
            6114097.5
          ],
          [
            675937.5,
            6114102.5
          ],
          [
            675937.5,
            6114107.5
          ],
          [
            675937.5,
            6114112.5
          ],
          [
            675937.5,
            6114117.5
          ],
          [
            675937.5,
            6114122.5
          ],
          [
            675937.5,
            6114127.5
          ],
          [
            675937.5,
            6114132.5
          ],
          [
            675937.5,
            6114137.5
          ],
          [
            675937.5,
            6114142.5
          ],
          [
            675937.5,
            6114147.5
          ],
          [
            675937.5,
            6114152.5
          ],
          [
            675937.5,
            6114157.5
          ],
          [
            675937.5,
            6114162.5
          ],
          [
            675937.5,
            6114167.5
          ],
          [
            675937.5,
            6114172.5
          ],
          [
            675937.5,
            6114177.5
          ],
          [
            675937.5,
            6114182.5
          ],
          [
            675937.5,
            6114187.5
          ],
          [
            675937.5,
            6114192.5
          ],
          [
            675937.5,
            6114197.5
          ],
          [
            675937.5,
            6114202.5
          ],
          [
            675937.5,
            6114207.5
          ],
          [
            675942.5,
            6114212.5
          ],
          [
            675942.5,
            6114217.5
          ],
          [
            675942.5,
            6114222.5
          ],
          [
            675947.5,
            6114227.5
          ],
          [
            675952.5,
            6114232.5
          ]
        ]
      }
    },
    {
      "type": "Feature",
      "properties": {
        "label": "AOG",
        "provisional": true,
        "snap_distance_m": 14.142135623730951
      },
      "geometry": {
        "type": "LineString",
        "coordinates": [
          [
            676767.5,
            6115107.5
          ],
          [
            676762.5,
            6115102.5
          ],
          [
            676757.5,
            6115102.5
          ],
          [
            676752.5,
            6115102.5
          ],
          [
            676747.5,
            6115102.5
          ],
          [
            676742.5,
            6115102.5
          ],
          [
            676737.5,
            6115097.5
          ],
          [
            676732.5,
            6115097.5
          ],
          [
            676727.5,
            6115097.5
          ],
          [
            676722.5,
            6115097.5
          ],
          [
            676717.5,
            6115097.5
          ],
          [
            676712.5,
            6115097.5
          ],
          [
            676707.5,
            6115097.5
          ],
          [
            676702.5,
            6115097.5
          ],
          [
            676697.5,
            6115092.5
          ],
          [
            676692.5,
            6115092.5
          ],
          [
            676687.5,
            6115087.5
          ],
          [
            676682.5,
            6115087.5
          ],
          [
            676677.5,
            6115087.5
          ],
          [
            676672.5,
            6115087.5
          ],
          [
            676667.5,
            6115087.5
          ],
          [
            676662.5,
            6115087.5
          ],
          [
            676657.5,
            6115087.5
          ],
          [
            676652.5,
            6115087.5
          ],
          [
            676647.5,
            6115087.5
          ],
          [
            676642.5,
            6115082.5
          ],
          [
            676637.5,
            6115077.5
          ],
          [
            676632.5,
            6115072.5
          ],
          [
            676627.5,
            6115067.5
          ],
          [
            676622.5,
            6115062.5
          ],
          [
            676617.5,
            6115057.5
          ],
          [
            676612.5,
            6115052.5
          ],
          [
            676607.5,
            6115047.5
          ],
          [
            676607.5,
            6115042.5
          ],
          [
            676602.5,
            6115037.5
          ],
          [
            676597.5,
            6115032.5
          ],
          [
            676597.5,
            6115027.5
          ],
          [
            676592.5,
            6115022.5
          ],
          [
            676587.5,
            6115017.5
          ],
          [
            676582.5,
            6115012.5
          ],
          [
            676577.5,
            6115007.5
          ],
          [
            676572.5,
            6115002.5
          ],
          [
            676572.5,
            6114997.5
          ],
          [
            676567.5,
            6114992.5
          ],
          [
            676567.5,
            6114987.5
          ],
          [
            676562.5,
            6114982.5
          ],
          [
            676557.5,
            6114977.5
          ],
          [
            676557.5,
            6114972.5
          ],
          [
            676557.5,
            6114967.5
          ],
          [
            676552.5,
            6114962.5
          ],
          [
            676552.5,
            6114957.5
          ],
          [
            676552.5,
            6114952.5
          ],
          [
            676552.5,
            6114947.5
          ],
          [
            676552.5,
            6114942.5
          ],
          [
            676552.5,
            6114937.5
          ],
          [
            676552.5,
            6114932.5
          ],
          [
            676552.5,
            6114927.5
          ],
          [
            676552.5,
            6114922.5
          ],
          [
            676552.5,
            6114917.5
          ],
          [
            676552.5,
            6114912.5
          ],
          [
            676552.5,
            6114907.5
          ],
          [
            676552.5,
            6114902.5
          ],
          [
            676552.5,
            6114897.5
          ],
          [
            676552.5,
            6114892.5
          ],
          [
            676552.5,
            6114887.5
          ],
          [
            676552.5,
            6114882.5
          ],
          [
            676557.5,
            6114877.5
          ],
          [
            676562.5,
            6114872.5
          ],
          [
            676567.5,
            6114867.5
          ],
          [
            676572.5,
            6114862.5
          ],
          [
            676577.5,
            6114857.5
          ],
          [
            676582.5,
            6114852.5
          ],
          [
            676587.5,
            6114847.5
          ],
          [
            676592.5,
            6114842.5
          ],
          [
            676597.5,
            6114842.5
          ],
          [
            676602.5,
            6114837.5
          ],
          [
            676607.5,
            6114832.5
          ],
          [
            676612.5,
            6114827.5
          ],
          [
            676617.5,
            6114822.5
          ]
        ]
      }
    },
    {
      "type": "Feature",
      "properties": {
        "label": "AEG?",
        "provisional": true,
        "snap_distance_m": 15.811388300841898
      },
      "geometry": {
        "type": "LineString",
        "coordinates": [
          [
            677002.5,
            6114937.5
          ],
          [
            676997.5,
            6114937.5
          ],
          [
            676992.5,
            6114937.5
          ],
          [
            676987.5,
            6114942.5
          ],
          [
            676982.5,
            6114942.5
          ],
          [
            676977.5,
            6114942.5
          ],
          [
            676972.5,
            6114937.5
          ],
          [
            676967.5,
            6114932.5
          ],
          [
            676962.5,
            6114927.5
          ],
          [
            676957.5,
            6114927.5
          ],
          [
            676952.5,
            6114922.5
          ],
          [
            676947.5,
            6114917.5
          ],
          [
            676942.5,
            6114917.5
          ],
          [
            676937.5,
            6114917.5
          ],
          [
            676932.5,
            6114917.5
          ],
          [
            676927.5,
            6114912.5
          ],
          [
            676922.5,
            6114912.5
          ],
          [
            676917.5,
            6114912.5
          ],
          [
            676912.5,
            6114912.5
          ],
          [
            676907.5,
            6114912.5
          ],
          [
            676902.5,
            6114912.5
          ],
          [
            676897.5,
            6114912.5
          ],
          [
            676892.5,
            6114912.5
          ],
          [
            676887.5,
            6114912.5
          ],
          [
            676882.5,
            6114912.5
          ],
          [
            676877.5,
            6114907.5
          ],
          [
            676872.5,
            6114902.5
          ],
          [
            676867.5,
            6114902.5
          ],
          [
            676862.5,
            6114902.5
          ],
          [
            676857.5,
            6114902.5
          ],
          [
            676852.5,
            6114902.5
          ],
          [
            676847.5,
            6114902.5
          ],
          [
            676842.5,
            6114902.5
          ],
          [
            676837.5,
            6114902.5
          ],
          [
            676832.5,
            6114902.5
          ],
          [
            676827.5,
            6114902.5
          ],
          [
            676822.5,
            6114902.5
          ],
          [
            676817.5,
            6114902.5
          ],
          [
            676812.5,
            6114902.5
          ],
          [
            676807.5,
            6114902.5
          ],
          [
            676802.5,
            6114897.5
          ],
          [
            676797.5,
            6114897.5
          ],
          [
            676792.5,
            6114897.5
          ],
          [
            676787.5,
            6114897.5
          ],
          [
            676782.5,
            6114892.5
          ],
          [
            676777.5,
            6114892.5
          ],
          [
            676772.5,
            6114887.5
          ],
          [
            676767.5,
            6114887.5
          ],
          [
            676762.5,
            6114882.5
          ],
          [
            676762.5,
            6114877.5
          ],
          [
            676762.5,
            6114872.5
          ],
          [
            676762.5,
            6114867.5
          ],
          [
            676757.5,
            6114862.5
          ],
          [
            676752.5,
            6114862.5
          ],
          [
            676747.5,
            6114857.5
          ],
          [
            676742.5,
            6114852.5
          ],
          [
            676737.5,
            6114847.5
          ],
          [
            676732.5,
            6114842.5
          ],
          [
            676727.5,
            6114837.5
          ],
          [
            676722.5,
            6114837.5
          ],
          [
            676717.5,
            6114837.5
          ],
          [
            676717.5,
            6114832.5
          ],
          [
            676712.5,
            6114827.5
          ],
          [
            676707.5,
            6114822.5
          ],
          [
            676707.5,
            6114817.5
          ],
          [
            676707.5,
            6114812.5
          ],
          [
            676707.5,
            6114807.5
          ],
          [
            676707.5,
            6114802.5
          ],
          [
            676702.5,
            6114797.5
          ],
          [
            676702.5,
            6114792.5
          ],
          [
            676702.5,
            6114787.5
          ],
          [
            676697.5,
            6114782.5
          ],
          [
            676692.5,
            6114782.5
          ],
          [
            676687.5,
            6114782.5
          ],
          [
            676682.5,
            6114782.5
          ],
          [
            676677.5,
            6114782.5
          ],
          [
            676672.5,
            6114777.5
          ],
          [
            676667.5,
            6114777.5
          ],
          [
            676667.5,
            6114772.5
          ],
          [
            676672.5,
            6114767.5
          ],
          [
            676672.5,
            6114762.5
          ],
          [
            676672.5,
            6114757.5
          ]
        ]
      }
    }
  ]
}